[{"OBJECT_NAME":"NANOSAT 1B","OBJECT_ID":"2009-041E","EPOCH":"2026-03-09T21:25:14.277504","MEAN_MOTION":14.92717139,"ECCENTRICITY":0.00507083,"INCLINATION":98.1028,"RA_OF_ASC_NODE":184.556,"ARG_OF_PERICENTER":130.665,"MEAN_ANOMALY":229.8993,"EPHEMERIS_TYPE":0,"CLASSIFICATION_TYPE":"U","NORAD_CAT_ID":35685,"ELEMENT_SET_NO":999,"REV_AT_EPOCH":89960,"BSTAR":0.0002341259,"MEAN_MOTION_DOT":2.414e-5,"MEAN_MOTION_DDOT":0},{"OBJECT_NAME":"STARLINK-34431","OBJECT_ID":"2025-126K","EPOCH":"2026-03-09T22:52:30.388800","MEAN_MOTION":14.983227,"ECCENTRICITY":0.00030241,"INCLINATION":70.0026,"RA_OF_ASC_NODE":33.7034,"ARG_OF_PERICENTER":273.2517,"MEAN_ANOMALY":86.8296,"EPHEMERIS_TYPE":0,"CLASSIFICATION_TYPE":"U","NORAD_CAT_ID":64353,"ELEMENT_SET_NO":999,"REV_AT_EPOCH":4072,"BSTAR":0.00067110135,"MEAN_MOTION_DOT":7.922e-5,"MEAN_MOTION_DDOT":0}]
